0 SL-8 DEB *
1 18500U 75112E   13281.57960324  .00000794  00000-0  22324-3 0  3306
2 18500 074.0463 327.6377 0015360 308.3449 173.3237 14.47484253502062
0 SL-8 DEB *
1 18500U 75112E   13283.79085883  .00000861  00000-0  24123-3 0  3315
2 18500 074.0460 323.5047 0015425 304.0152 175.7113 14.47491464502380
0 SL-8 DEB *
1 18500U 75112E   13286.19918566  .00000880  00000-0  24640-3 0  3321
2 18500 074.0455 319.0031 0015423 299.3189 125.0234 14.47495057502734
0 SL-8 DEB *
1 18500U 75112E   13288.20491083  .00001403  00000-0  38856-3 0  3332
2 18500 074.0452 315.2538 0015473 295.3846 136.5093 14.47500758503020
0 SL-8 DEB *
1 18500U 75112E   13290.50107050  .00001142  00000-0  31753-3 0  3346
2 18500 074.0452 310.9614 0015539 291.0234 221.3092 14.47506373503351
0 SL-8 DEB *
1 18500U 75112E   13292.50530801  .00001262  00000-0  35015-3 0  3351
2 18500 074.0453 307.2146 0015553 287.1094 225.1157 14.47510474503640
0 SL-8 DEB *
1 18500U 75112E   13295.11461084  .00001525  00000-0  42144-3 0  3361
2 18500 074.0454 302.3368 0015537 281.9437 141.9549 14.47517404504021
